{
    "links": {
        "self": "http://www.neowsapp.com/rest/v1/neo/3781984?api_key=iIulBulltgU6a56xZRHN4H3l9WmuAYTsLGpBGhQ2"
    },
    "id": "3781984",
    "neo_reference_id": "3781984",
    "name": "(2017 SC20)",
    "designation": "2017 SC20",
    "nasa_jpl_url": "http://ssd.jpl.nasa.gov/sbdb.cgi?sstr=3781984",
    "absolute_magnitude_h": 23.8,
    "estimated_diameter": {
        "kilometers": {
            "estimated_diameter_min": 0.046190746,
            "estimated_diameter_max": 0.1032856481
        },
        "meters": {
            "estimated_diameter_min": 46.1907460282,
            "estimated_diameter_max": 103.2856480504
        },
        "miles": {
            "estimated_diameter_min": 0.0287015901,
            "estimated_diameter_max": 0.0641787064
        },
        "feet": {
            "estimated_diameter_min": 151.544447199,
            "estimated_diameter_max": 338.8636855496
        }
    },
    "is_potentially_hazardous_asteroid": false,
    "close_approach_data": [
        {
            "close_approach_date": "2017-09-22",
            "close_approach_date_full": "2017-Sep-22 14:53",
            "epoch_date_close_approach": 1506091980000,
            "relative_velocity": {
                "kilometers_per_second": "12.780466237",
                "kilometers_per_hour": "46009.678453299",
                "miles_per_hour": "28588.6249256068"
            },
            "miss_distance": {
                "astronomical": "0.0601669324",
                "lunar": "23.4049367036",
                "kilometers": "9000844.931473988",
                "miles": "5592865.6957895144"
            },
            "orbiting_body": "Earth"
        },
        {
            "close_approach_date": "2028-05-25",
            "close_approach_date_full": "2028-May-25 23:44",
            "epoch_date_close_approach": 1842911040000,
            "relative_velocity": {
                "kilometers_per_second": "13.7806636355",
                "kilometers_per_hour": "49610.3890876632",
                "miles_per_hour": "30825.9664861649"
            },
            "miss_distance": {
                "astronomical": "0.2071059726",
                "lunar": "80.5642233414",
                "kilometers": "30982612.365238362",
                "miles": "19251702.6104469156"
            },
            "orbiting_body": "Earth"
        },
        {
            "close_approach_date": "2113-05-30",
            "close_approach_date_full": "2113-May-30 13:32",
            "epoch_date_close_approach": 4525594320000,
            "relative_velocity": {
                "kilometers_per_second": "12.8103541804",
                "kilometers_per_hour": "46117.2750495138",
                "miles_per_hour": "28655.4812661826"
            },
            "miss_distance": {
                "astronomical": "0.1945951903",
                "lunar": "75.6975290267",
                "kilometers": "29111025.981124661",
                "miles": "18088752.7580598818"
            },
            "orbiting_body": "Earth"
        }
    ],
    "orbital_data": {
        "orbit_id": "2",
        "orbit_determination_date": "2017-10-20 06:22:00",
        "first_observation_date": "2017-09-25",
        "last_observation_date": "2017-10-19",
        "data_arc_in_days": 24,
        "observations_used": 59,
        "orbit_uncertainty": "7",
        "minimum_orbit_intersection": ".0389642",
        "jupiter_tisserand_invariant": "4.089",
        "epoch_osculation": "2459000.5",
        "eccentricity": ".4562781774980115",
        "semi_major_axis": "1.681931908218643",
        "inclination": "10.37345917833708",
        "ascending_node_longitude": "186.0423732833371",
        "orbital_period": "796.7297635218422",
        "perihelion_distance": ".9145030824608876",
        "perihelion_argument": "120.6349811897537",
        "aphelion_distance": "2.449360733976398",
        "perihelion_time": "2458775.689157631137",
        "mean_anomaly": "101.5801178244447",
        "mean_motion": ".4518470584162263",
        "equinox": "J2000",
        "orbit_class": {
            "orbit_class_type": "APO",
            "orbit_class_description": "Near-Earth asteroid orbits which cross the Earth’s orbit similar to that of 1862 Apollo",
            "orbit_class_range": "a (semi-major axis) > 1.0 AU; q (perihelion) < 1.017 AU"
        }
    },
    "is_sentry_object": false
}